[{"OBJECT_NAME":"STARLINK-31922","OBJECT_ID":"2024-097M","EPOCH":"2026-03-08T23:48:28.547712","MEAN_MOTION":15.27574756,"ECCENTRICITY":0.00013996,"INCLINATION":43.001,"RA_OF_ASC_NODE":277.9877,"ARG_OF_PERICENTER":265.2974,"MEAN_ANOMALY":94.7718,"EPHEMERIS_TYPE":0,"CLASSIFICATION_TYPE":"U","NORAD_CAT_ID":59846,"ELEMENT_SET_NO":999,"REV_AT_EPOCH":10181,"BSTAR":2.137538e-6,"MEAN_MOTION_DOT":-2.03e-6,"MEAN_MOTION_DDOT":0},{"OBJECT_NAME":"OBJECT F","OBJECT_ID":"2021-022F","EPOCH":"2026-03-09T23:37:37.165152","MEAN_MOTION":15.31317672,"ECCENTRICITY":0.00120882,"INCLINATION":97.3982,"RA_OF_ASC_NODE":329.8375,"ARG_OF_PERICENTER":85.9268,"MEAN_ANOMALY":274.3355,"EPHEMERIS_TYPE":0,"CLASSIFICATION_TYPE":"U","NORAD_CAT_ID":47937,"ELEMENT_SET_NO":999,"REV_AT_EPOCH":27452,"BSTAR":0.00038690553,"MEAN_MOTION_DOT":0.00011656,"MEAN_MOTION_DDOT":0}]
